start=new Date('2022-07-15T00:00:00.000Z').valueOf();
sats=[{"DECAY_DATE":null,"MEAN_ANOMALY":"295.8573","SITE":"AFETR","NORAD_CAT_ID":"47677","MEAN_ELEMENT_THEORY":"SGP4","PERIOD":"95.593","FILE":"3513976","ARG_OF_PERICENTER":"64.2578","RA_OF_ASC_NODE":"300.1692","ECCENTRICITY":"0.00015670","BSTAR":"-0.00015618000000","TIME_SYSTEM":"UTC","LAUNCH_DATE":"2021-02-16","MEAN_MOTION":"15.06389860","ELEMENT_SET_NO":"999","TLE_LINE2":"2 47677  53.0546 300.1692 0001567  64.2578 295.8573 15.06389860 78918","CLASSIFICATION_TYPE":"U","REV_AT_EPOCH":"7891","APOAPSIS":"548.330","OBJECT_ID":"2021-012BK","EPOCH":"2022-07-14T16:33:57.034080","OBJECT_TYPE":"PAYLOAD","TLE_LINE1":"1 47677U 21012BK  22195.69024345 -.00002606  00000-0 -15618-3 0  9999","CENTER_NAME":"EARTH","EPHEMERIS_TYPE":"0","REF_FRAME":"TEME","COUNTRY_CODE":"US","RCS_SIZE":"LARGE","GP_ID":"208134623","MEAN_MOTION_DDOT":"0.0000000000000","SEMIMAJOR_AXIS":"6925.380","MEAN_MOTION_DOT":"-0.00002606","PERIAPSIS":"546.159","OBJECT_NAME":"STARLINK-2090","INCLINATION":"53.0546"},{"RA_OF_ASC_NODE":"299.7594","ECCENTRICITY":"0.00014010","BSTAR":"-0.00016497000000","TIME_SYSTEM":"UTC","LAUNCH_DATE":"2021-02-16","DECAY_DATE":null,"MEAN_ANOMALY":"281.2334","PERIOD":"95.593","SITE":"AFETR","MEAN_ELEMENT_THEORY":"SGP4","NORAD_CAT_ID":"47679","ARG_OF_PERICENTER":"78.8812","FILE":"3513976","COUNTRY_CODE":"US","RCS_SIZE":"LARGE","GP_ID":"208133377","MEAN_MOTION_DDOT":"0.0000000000000","SEMIMAJOR_AXIS":"6925.370","MEAN_MOTION_DOT":"-0.00002737","OBJECT_NAME":"STARLINK-2095","PERIAPSIS":"546.265","INCLINATION":"53.0546","CLASSIFICATION_TYPE":"U","TLE_LINE2":"2 47679  53.0546 299.7594 0001401  78.8812 281.2334 15.06393058 78944","ELEMENT_SET_NO":"999","MEAN_MOTION":"15.06393058","REV_AT_EPOCH":"7894","APOAPSIS":"548.205","OBJECT_ID":"2021-012BM","EPOCH":"2022-07-14T18:51:56.253600","TLE_LINE1":"1 47679U 21012BM  22195.78606775 -.00002737  00000-0 -16497-3 0  9995","CENTER_NAME":"EARTH","EPHEMERIS_TYPE":"0","OBJECT_TYPE":"PAYLOAD","REF_FRAME":"TEME"},{"ECCENTRICITY":"0.00013970","RA_OF_ASC_NODE":"64.4908","LAUNCH_DATE":"2021-03-04","TIME_SYSTEM":"UTC","BSTAR":"-0.00002448600000","MEAN_ANOMALY":"281.8549","DECAY_DATE":null,"FILE":"3513976","ARG_OF_PERICENTER":"78.2597","NORAD_CAT_ID":"47722","SITE":"AFETR","MEAN_ELEMENT_THEORY":"SGP4","PERIOD":"95.593","MEAN_MOTION_DDOT":"0.0000000000000","GP_ID":"208134132","COUNTRY_CODE":"US","RCS_SIZE":"LARGE","INCLINATION":"53.0539","PERIAPSIS":"546.264","OBJECT_NAME":"STARLINK-2068","MEAN_MOTION_DOT":"-0.00000646","SEMIMAJOR_AXIS":"6925.366","APOAPSIS":"548.199","REV_AT_EPOCH":"7695","MEAN_MOTION":"15.06394206","ELEMENT_SET_NO":"999","TLE_LINE2":"2 47722  53.0539  64.4908 0001397  78.2597 281.8549 15.06394206 76958","CLASSIFICATION_TYPE":"U","REF_FRAME":"TEME","OBJECT_TYPE":"PAYLOAD","TLE_LINE1":"1 47722U 21017A   22195.89532045 -.00000646  00000-0 -24486-4 0  9994","CENTER_NAME":"EARTH","EPHEMERIS_TYPE":"0","EPOCH":"2022-07-14T21:29:15.686880","OBJECT_ID":"2021-017A"},{"FILE":"3513976","ARG_OF_PERICENTER":"91.9686","SITE":"AFETR","MEAN_ELEMENT_THEORY":"SGP4","NORAD_CAT_ID":"47723","PERIOD":"95.593","MEAN_ANOMALY":"268.1470","DECAY_DATE":null,"TIME_SYSTEM":"UTC","LAUNCH_DATE":"2021-03-04","BSTAR":"-0.00014499000000","RA_OF_ASC_NODE":"359.5273","ECCENTRICITY":"0.00014540","OBJECT_TYPE":"PAYLOAD","CENTER_NAME":"EARTH","TLE_LINE1":"1 47723U 21017B   22195.83677795 -.00002440  00000-0 -14499-3 0  9997","EPHEMERIS_TYPE":"0","REF_FRAME":"TEME","OBJECT_ID":"2021-017B","EPOCH":"2022-07-14T20:04:57.614880","APOAPSIS":"548.245","ELEMENT_SET_NO":"999","MEAN_MOTION":"15.06391926","TLE_LINE2":"2 47723  53.0552 359.5273 0001454  91.9686 268.1470 15.06391926 77826","CLASSIFICATION_TYPE":"U","REV_AT_EPOCH":"7782","MEAN_MOTION_DOT":"-0.00002440","PERIAPSIS":"546.231","INCLINATION":"53.0552","OBJECT_NAME":"STARLINK-2107","SEMIMAJOR_AXIS":"6925.373","MEAN_MOTION_DDOT":"0.0000000000000","RCS_SIZE":"LARGE","COUNTRY_CODE":"US","GP_ID":"208134882"},{"NORAD_CAT_ID":"47724","SITE":"AFETR","MEAN_ELEMENT_THEORY":"SGP4","PERIOD":"95.592","ARG_OF_PERICENTER":"91.2175","FILE":"3513976","DECAY_DATE":null,"MEAN_ANOMALY":"268.8958","BSTAR":"-0.00003160400000","LAUNCH_DATE":"2021-03-04","TIME_SYSTEM":"UTC","RA_OF_ASC_NODE":"359.6560","ECCENTRICITY":"0.00012560","EPOCH":"2022-07-14T19:22:29.251200","OBJECT_ID":"2021-017C","REF_FRAME":"TEME","OBJECT_TYPE":"PAYLOAD","TLE_LINE1":"1 47724U 21017C   22195.80728300 -.00000752  00000-0 -31604-4 0  9996","EPHEMERIS_TYPE":"0","CENTER_NAME":"EARTH","REV_AT_EPOCH":"7778","MEAN_MOTION":"15.06396556","ELEMENT_SET_NO":"999","TLE_LINE2":"2 47724  53.0552 359.6560 0001256  91.2175 268.8958 15.06396556 77780","CLASSIFICATION_TYPE":"U","APOAPSIS":"548.094","SEMIMAJOR_AXIS":"6925.359","OBJECT_NAME":"STARLINK-2116","PERIAPSIS":"546.354","INCLINATION":"53.0552","MEAN_MOTION_DOT":"-0.00000752","GP_ID":"208134628","RCS_SIZE":"LARGE","COUNTRY_CODE":"US","MEAN_MOTION_DDOT":"0.0000000000000"},{"REV_AT_EPOCH":"7683","CLASSIFICATION_TYPE":"U","TLE_LINE2":"2 47725  53.0554  69.2119 0001365  73.2949 286.8189 15.06384640 76839","ELEMENT_SET_NO":"999","MEAN_MOTION":"15.06384640","APOAPSIS":"548.206","EPOCH":"2022-07-14T21:47:08.115648","OBJECT_ID":"2021-017D","REF_FRAME":"TEME","CENTER_NAME":"EARTH","TLE_LINE1":"1 47725U 21017D   22195.90773282 -.00004213  00000-0 -26421-3 0  9993","EPHEMERIS_TYPE":"0","OBJECT_TYPE":"PAYLOAD","GP_ID":"208133382","COUNTRY_CODE":"US","RCS_SIZE":"LARGE","MEAN_MOTION_DDOT":"0.0000000000000","SEMIMAJOR_AXIS":"6925.396","PERIAPSIS":"546.315","OBJECT_NAME":"STARLINK-2125","INCLINATION":"53.0554","MEAN_MOTION_DOT":"-0.00004213","DECAY_DATE":null,"MEAN_ANOMALY":"286.8189","PERIOD":"95.593","SITE":"AFETR","MEAN_ELEMENT_THEORY":"SGP4","NORAD_CAT_ID":"47725","ARG_OF_PERICENTER":"73.2949","FILE":"3513976","RA_OF_ASC_NODE":"69.2119","ECCENTRICITY":"0.00013650","BSTAR":"-0.00026421000000","LAUNCH_DATE":"2021-03-04","TIME_SYSTEM":"UTC"},{"SEMIMAJOR_AXIS":"6925.344","MEAN_MOTION_DOT":"-0.00000654","INCLINATION":"53.0552","PERIAPSIS":"546.325","OBJECT_NAME":"STARLINK-2126","COUNTRY_CODE":"US","RCS_SIZE":"LARGE","GP_ID":"208133632","MEAN_MOTION_DDOT":"0.0000000000000","OBJECT_ID":"2021-017E","EPOCH":"2022-07-14T19:50:21.065280","OBJECT_TYPE":"PAYLOAD","TLE_LINE1":"1 47726U 21017E   22195.82663270 -.00000654  00000-0 -25002-4 0  9990","EPHEMERIS_TYPE":"0","CENTER_NAME":"EARTH","REF_FRAME":"TEME","MEAN_MOTION":"15.06401500","ELEMENT_SET_NO":"999","CLASSIFICATION_TYPE":"U","TLE_LINE2":"2 47726  53.0552  69.5645 0001277  64.6523 295.4598 15.06401500 76812","REV_AT_EPOCH":"7681","APOAPSIS":"548.093","BSTAR":"-0.00002500200000","TIME_SYSTEM":"UTC","LAUNCH_DATE":"2021-03-04","RA_OF_ASC_NODE":"69.5645","ECCENTRICITY":"0.00012770","SITE":"AFETR","MEAN_ELEMENT_THEORY":"SGP4","NORAD_CAT_ID":"47726","PERIOD":"95.592","FILE":"3513976","ARG_OF_PERICENTER":"64.6523","DECAY_DATE":null,"MEAN_ANOMALY":"295.4598"},{"APOAPSIS":"548.231","REV_AT_EPOCH":"7796","CLASSIFICATION_TYPE":"U","TLE_LINE2":"2 47727  53.0566 349.7950 0001429  76.6112 283.5036 15.06390929 77960","ELEMENT_SET_NO":"999","MEAN_MOTION":"15.06390929","REF_FRAME":"TEME","TLE_LINE1":"1 47727U 21017F   22195.77778419 -.00002197  00000-0 -12868-3 0  9996","CENTER_NAME":"EARTH","EPHEMERIS_TYPE":"0","OBJECT_TYPE":"PAYLOAD","EPOCH":"2022-07-14T18:40:00.554016","OBJECT_ID":"2021-017F","MEAN_MOTION_DDOT":"0.0000000000000","GP_ID":"208134382","RCS_SIZE":"LARGE","COUNTRY_CODE":"US","OBJECT_NAME":"STARLINK-2129","PERIAPSIS":"546.252","INCLINATION":"53.0566","MEAN_MOTION_DOT":"-0.00002197","SEMIMAJOR_AXIS":"6925.376","MEAN_ANOMALY":"283.5036","DECAY_DATE":null,"FILE":"3513976","ARG_OF_PERICENTER":"76.6112","PERIOD":"95.593","NORAD_CAT_ID":"47727","SITE":"AFETR","MEAN_ELEMENT_THEORY":"SGP4","RA_OF_ASC_NODE":"349.7950","ECCENTRICITY":"0.00014290","LAUNCH_DATE":"2021-03-04","TIME_SYSTEM":"UTC","BSTAR":"-0.00012868000000"},{"DECAY_DATE":null,"MEAN_ANOMALY":"282.0348","NORAD_CAT_ID":"47728","SITE":"AFETR","MEAN_ELEMENT_THEORY":"SGP4","PERIOD":"95.593","ARG_OF_PERICENTER":"78.0813","FILE":"3513855","RA_OF_ASC_NODE":"69.6834","ECCENTRICITY":"0.00015340","BSTAR":"-0.00012428000000","LAUNCH_DATE":"2021-03-04","TIME_SYSTEM":"UTC","REV_AT_EPOCH":"7619","ELEMENT_SET_NO":"999","MEAN_MOTION":"15.06387616","CLASSIFICATION_TYPE":"U","TLE_LINE2":"2 47728  53.0549  69.6834 0001534  78.0813 282.0348 15.06387616 76195","APOAPSIS":"548.314","EPOCH":"2022-07-14T19:13:12.944928","OBJECT_ID":"2021-017G","REF_FRAME":"TEME","OBJECT_TYPE":"PAYLOAD","EPHEMERIS_TYPE":"0","TLE_LINE1":"1 47728U 21017G   22195.80084427 -.00002132  00000-0 -12428-3 0  9991","CENTER_NAME":"EARTH","GP_ID":"208110341","RCS_SIZE":"LARGE","COUNTRY_CODE":"US","MEAN_MOTION_DDOT":"0.0000000000000","SEMIMAJOR_AXIS":"6925.387","PERIAPSIS":"546.189","OBJECT_NAME":"STARLINK-2131","INCLINATION":"53.0549","MEAN_MOTION_DOT":"-0.00002132"},{"COUNTRY_CODE":"US","RCS_SIZE":"LARGE","GP_ID":"208110345","MEAN_MOTION_DDOT":"0.0000000000000","SEMIMAJOR_AXIS":"6925.365","MEAN_MOTION_DOT":"0.00001409","INCLINATION":"53.0552","PERIAPSIS":"546.042","OBJECT_NAME":"STARLINK-2132","ELEMENT_SET_NO":"999","MEAN_MOTION":"15.06394643","TLE_LINE2":"2 47729  53.0552  15.0561 0001716 102.6588 257.4593 15.06394643 76968","CLASSIFICATION_TYPE":"U","REV_AT_EPOCH":"7696","APOAPSIS":"548.418","OBJECT_ID":"2021-017H","EPOCH":"2022-07-14T18:19:29.890560","OBJECT_TYPE":"PAYLOAD","CENTER_NAME":"EARTH","TLE_LINE1":"1 47729U 21017H   22195.76354040  .00001409  00000-0  11350-3 0  9995","EPHEMERIS_TYPE":"0","REF_FRAME":"TEME","ECCENTRICITY":"0.00017160","RA_OF_ASC_NODE":"15.0561","BSTAR":"0.00011350000000","TIME_SYSTEM":"UTC","LAUNCH_DATE":"2021-03-04","DECAY_DATE":null,"MEAN_ANOMALY":"257.4593","NORAD_CAT_ID":"47729","SITE":"AFETR","MEAN_ELEMENT_THEORY":"SGP4","PERIOD":"95.592","FILE":"3513855","ARG_OF_PERICENTER":"102.6588"}];
